NORAD_CAT_ID,OBJECT_NAME,OBJECT_TYPE,EPOCH,MEAN_MOTION,ECCENTRICITY,INCLINATION,RA_OF_ASC_NODE,ARG_OF_PERICENTER,MEAN_ANOMALY,BSTAR,MEAN_MOTION_DOT,MEAN_MOTION_DDOT,TLE_LINE0,TLE_LINE1,TLE_LINE2,SEMIMAJOR_AXIS,PERIOD,APOGEE,PERIGEE,DECAYED
51854.0,STARLINK-3541,PAYLOAD,2023-02-12 22:25:42,15.08819596,6.3e-05,53.2184,10.3836,57.5954,302.5099,-0.00010488,-1.955e-05,0.0,0 STARLINK-3541,1 51854U 22022C   23043.93451852 -.00001955  00000-0 -10488-3 0  9996,2 51854  53.2184  10.3836 0000630  57.5954 302.5099 15.08819596 53821,6917.943,95.439,540.244,539.372,0.0
51854.0,STARLINK-3541,PAYLOAD,2023-02-13 04:47:14,15.08843292,0.000142,53.2193,9.1993,106.6379,253.4769,0.0012014,0.00018886,0.0,0 STARLINK-3541,1 51854U 22022C   23044.19947674  .00018886  00000-0  12014-2 0  9992,2 51854  53.2193   9.1993 0001420 106.6379 253.4769 15.08843292 53868,6917.87,95.437,540.718,538.753,0.0
51854.0,STARLINK-3541,PAYLOAD,2023-02-13 14:19:33,15.08845679,8.09e-05,53.2179,7.4125,64.6706,295.437,0.0015781,0.00024921,0.0,0 STARLINK-3541,1 51854U 22022C   23044.59691566  .00024921  00000-0  15781-2 0  9993,2 51854  53.2179   7.4125 0000809  64.6706 295.4370 15.08845679 53929,6917.863,95.437,540.288,539.168,0.0
51854.0,STARLINK-3541,PAYLOAD,2023-02-13 23:51:52,15.08851697,0.0001412,53.2179,5.6277,103.897,256.218,0.0014722,0.00023227,0.0,0 STARLINK-3541,1 51854U 22022C   23044.99435957  .00023227  00000-0  14722-2 0  9999,2 51854  53.2179   5.6277 0001412 103.8970 256.2180 15.08851697 53984,6917.845,95.437,540.686,538.733,0.0
51854.0,STARLINK-3541,PAYLOAD,2023-02-14 14:10:21,15.08838297,0.0003625,53.2176,2.9517,84.7816,275.3589,0.002342,0.00037183,0.0,0 STARLINK-3541,1 51854U 22022C   23045.59053202  .00037183  00000-0  23420-2 0  9996,2 51854  53.2176   2.9517 0003625  84.7816 275.3589 15.08838297 54079,6917.886,95.438,542.258,537.243,0.0
51854.0,STARLINK-3541,PAYLOAD,2023-02-15 04:28:49,15.08857256,0.0001425,53.2175,0.2764,90.1989,269.9167,0.00135,0.00021273,0.0,0 STARLINK-3541,1 51854U 22022C   23046.18668107  .00021273  00000-0  13500-2 0  9999,2 51854  53.2175   0.2764 0001425  90.1989 269.9167 15.08857256 54168,6917.828,95.436,540.678,538.707,0.0
51854.0,STARLINK-3541,PAYLOAD,2023-02-15 14:01:08,15.08855534,0.0001498,53.2175,358.4913,73.9941,286.1216,0.0014683,0.00023167,0.0,0 STARLINK-3541,1 51854U 22022C   23046.58412259  .00023167  00000-0  14683-2 0  9995,2 51854  53.2175 358.4913 0001498  73.9941 286.1216 15.08855534 54229,6917.833,95.437,540.734,538.662,0.0
51854.0,STARLINK-3541,PAYLOAD,2023-02-15 20:22:40,15.08853364,0.0001734,53.2165,357.3033,73.6294,286.4888,0.0010271,0.00016102,0.0,0 STARLINK-3541,1 51854U 22022C   23046.84908209  .00016102  00000-0  10271-2 0  9999,2 51854  53.2165 357.3033 0001734  73.6294 286.4888 15.08853364 54261,6917.84,95.437,540.904,538.505,0.0
51854.0,STARLINK-3541,PAYLOAD,2023-02-16 13:51:54,15.08851028,0.000134,53.2183,354.0306,85.2448,274.8697,0.0003087,4.63e-05,0.0,0 STARLINK-3541,1 51854U 22022C   23047.57771646  .00004630  00000-0  30870-3 0  9994,2 51854  53.2183 354.0306 0001340  85.2448 274.8697 15.08851028 54377,6917.847,95.437,540.639,538.785,0.0
51854.0,STARLINK-3541,PAYLOAD,2023-02-17 05:45:46,15.08836757,0.0001588,53.2178,351.0556,103.7215,256.3954,0.0004717,7.226e-05,0.0,0 STARLINK-3541,1 51854U 22022C   23048.24012452  .00007226  00000-0  47170-3 0  9997,2 51854  53.2178 351.0556 0001588 103.7215 256.3954 15.08836757 54471,6917.89,95.438,540.854,538.657,0.0
51854.0,STARLINK-3541,PAYLOAD,2023-02-17 13:42:43,15.08808377,0.0002586,53.2173,349.5717,76.4412,283.6868,0.00014949,2.09e-05,0.0,0 STARLINK-3541,1 51854U 22022C   23048.57134128  .00002090  00000-0  14949-3 0  9990,2 51854  53.2173 349.5717 0002586  76.4412 283.6868 15.08808377 54521,6917.977,95.44,541.631,538.053,0.0
51854.0,STARLINK-3541,PAYLOAD,2023-02-18 00:50:25,15.08827687,0.000202,53.2172,347.491,58.022,302.0968,0.00066691,0.00010338,0.0,0 STARLINK-3541,1 51854U 22022C   23049.03502212  .00010338  00000-0  66691-3 0  9990,2 51854  53.2172 347.4910 0002020  58.0220 302.0968 15.08827687 54597,6917.918,95.438,541.18,538.386,0.0
51854.0,STARLINK-3541,PAYLOAD,2023-02-18 05:36:34,15.08843787,0.0001916,53.2189,346.5927,96.5197,263.6014,0.00093149,0.00014569,0.0,0 STARLINK-3541,1 51854U 22022C   23049.23373755  .00014569  00000-0  93149-3 0  9998,2 51854  53.2189 346.5927 0001916  96.5197 263.6014 15.08843787 54623,6917.869,95.437,541.059,538.408,0.0
51854.0,STARLINK-3541,PAYLOAD,2023-02-19 02:16:35,15.08856499,0.0001856,53.2191,342.7282,83.5245,276.5959,0.0003799,5.766e-05,0.0,0 STARLINK-3541,1 51854U 22022C   23050.09485099  .00005766  00000-0  37990-3 0  9990,2 51854  53.2191 342.7282 0001856  83.5245 276.5959 15.08856499 54750,6917.83,95.437,540.979,538.411,0.0
51854.0,STARLINK-3541,PAYLOAD,2023-02-19 11:48:53,15.08856468,0.0001422,53.218,340.9466,86.2226,273.8928,0.00028099,4.189e-05,0.0,0 STARLINK-3541,1 51854U 22022C   23050.49228788  .00004189  00000-0  28099-3 0  9992,2 51854  53.2180 340.9466 0001422  86.2226 273.8928 15.08856468 54819,6917.83,95.437,540.679,538.711,0.0
51854.0,STARLINK-3541,PAYLOAD,2023-02-19 22:56:35,15.08846889,0.0001754,53.2192,338.8676,87.2922,272.8271,3.7033e-05,3.01e-06,0.0,0 STARLINK-3541,1 51854U 22022C   23050.95596785  .00000301  00000-0  37033-4 0  9999,2 51854  53.2192 338.8676 0001754  87.2922 272.8271 15.08846889 54886,6917.859,95.437,540.938,538.511,0.0
51854.0,STARLINK-3541,PAYLOAD,2023-02-20 11:39:40,15.08851696,0.0001413,53.2182,336.4868,88.5811,271.5343,9.0515e-05,1.153e-05,0.0,0 STARLINK-3541,1 51854U 22022C   23051.48588221  .00001153  00000-0  90515-4 0  9994,2 51854  53.2182 336.4868 0001413  88.5811 271.5343 15.08851696 54962,6917.845,95.437,540.687,538.732,0.0
51854.0,STARLINK-3541,PAYLOAD,2023-02-21 03:33:31,15.08847015,0.0001603,53.2187,333.5143,94.8954,265.2221,7.7924e-05,9.53e-06,0.0,0 STARLINK-3541,1 51854U 22022C   23052.14828387  .00000953  00000-0  77924-4 0  9994,2 51854  53.2187 333.5143 0001603  94.8954 265.2221 15.08847015 55067,6917.859,95.437,540.833,538.615,0.0
51854.0,STARLINK-3541,PAYLOAD,2023-02-21 11:30:27,15.088447,0.000141,53.2173,332.0273,89.5395,270.5759,2.5484e-05,1.18e-06,0.0,0 STARLINK-3541,1 51854U 22022C   23052.47948406  .00000118  00000-0  25484-4 0  9992,2 51854  53.2173 332.0273 0001410  89.5395 270.5759 15.08844700 55115,6917.866,95.437,540.706,538.756,0.0
51854.0,STARLINK-3541,PAYLOAD,2023-02-21 19:27:23,15.08843152,0.0001509,53.2175,330.5411,94.4048,265.7117,7.7499e-05,9.46e-06,0.0,0 STARLINK-3541,1 51854U 22022C   23052.81068464  .00000946  00000-0  77499-4 0  9999,2 51854  53.2175 330.5411 0001509  94.4048 265.7117 15.08843152 55162,6917.871,95.437,540.78,538.692,0.0
51854.0,STARLINK-3541,PAYLOAD,2023-02-22 03:24:18,15.08856848,0.0001563,53.2174,329.052,85.6878,274.4293,0.0002955,4.42e-05,0.0,0 STARLINK-3541,1 51854U 22022C   23053.14187797  .00004420  00000-0  29550-3 0  9992,2 51854  53.2174 329.0520 0001563  85.6878 274.4293 15.08856848 55212,6917.829,95.436,540.775,538.613,0.0
51854.0,STARLINK-3541,PAYLOAD,2023-02-22 19:18:10,15.08832041,0.0001574,53.2168,326.0786,97.2987,262.8184,-9.6024e-05,-1.816e-05,0.0,0 STARLINK-3541,1 51854U 22022C   23053.80428779 -.00001816  00000-0 -96024-4 0  9992,2 51854  53.2168 326.0786 0001574  97.2987 262.8184 15.08832041 55318,6917.905,95.438,540.859,538.681,0.0
51854.0,STARLINK-3541,PAYLOAD,2023-02-23 03:15:06,15.08829483,0.0001285,53.2166,324.5927,81.2573,278.8565,-9.4692e-05,-1.794e-05,0.0,0 STARLINK-3541,1 51854U 22022C   23054.13549197 -.00001794  00000-0 -94692-4 0  9991,2 51854  53.2166 324.5927 0001285  81.2573 278.8565 15.08829483 55360,6917.913,95.438,540.666,538.889,0.0
51854.0,STARLINK-3541,PAYLOAD,2023-02-23 20:44:20,15.0884829,0.0001256,53.2168,321.3217,81.4583,278.6551,0.00037485,5.684e-05,0.0,0 STARLINK-3541,1 51854U 22022C   23054.86412917  .00005684  00000-0  37485-3 0  9996,2 51854  53.2168 321.3217 0001256  81.4583 278.6551 15.08848290 55472,6917.855,95.437,540.589,538.851,0.0
51854.0,STARLINK-3541,PAYLOAD,2023-02-24 04:41:15,15.08886802,0.0001178,53.2157,319.8354,76.1107,284.0016,0.0019918,0.00031595,0.0,0 STARLINK-3541,1 51854U 22022C   23055.19532305  .00031595  00000-0  19918-2 0  9997,2 51854  53.2157 319.8354 0001178  76.1107 284.0016 15.08886802 55524,6917.737,95.435,540.417,538.787,0.0
51854.0,STARLINK-3541,PAYLOAD,2023-02-24 20:35:07,15.08848973,0.0001142,53.2158,316.8615,99.9868,260.1253,0.00088271,0.00013792,0.0,0 STARLINK-3541,1 51854U 22022C   23055.85772616  .00013792  00000-0  88271-3 0  9999,2 51854  53.2158 316.8615 0001142  99.9868 260.1253 15.08848973 55626,6917.853,95.437,540.508,538.928,0.0
51854.0,STARLINK-3541,PAYLOAD,2023-02-24 23:45:53,15.08845309,9.38e-05,53.2157,316.2668,91.7305,268.3794,0.00098507,0.00015426,0.0,0 STARLINK-3541,1 51854U 22022C   23055.99020661  .00015426  00000-0  98507-3 0  9999,2 51854  53.2157 316.2668 0000938  91.7305 268.3794 15.08845309 55647,6917.864,95.437,540.378,539.08,0.0
51854.0,STARLINK-3541,PAYLOAD,2023-02-25 20:25:55,15.08851252,0.0001145,53.2163,312.4002,97.1242,262.988,0.0015826,0.00024997,0.0,0 STARLINK-3541,1 51854U 22022C   23056.85133118  .00024997  00000-0  15826-2 0  9992,2 51854  53.2163 312.4002 0001145  97.1242 262.9880 15.08851252 55779,6917.846,95.437,540.503,538.919,0.0
51854.0,STARLINK-3541,PAYLOAD,2023-02-25 23:36:41,15.08849622,0.0001125,53.2163,311.8059,82.0873,278.0247,0.0012724,0.00020026,0.0,0 STARLINK-3541,1 51854U 22022C   23056.98381129  .00020026  00000-0  12724-2 0  9996,2 51854  53.2163 311.8059 0001125  82.0873 278.0247 15.08849622 55790,6917.851,95.437,540.494,538.938,0.0
51854.0,STARLINK-3541,PAYLOAD,2023-02-26 17:05:55,15.08852627,0.0001234,53.2166,308.5341,85.6151,274.4983,0.00060849,9.413e-05,0.0,0 STARLINK-3541,1 51854U 22022C   23057.71244822  .00009413  00000-0  60849-3 0  9995,2 51854  53.2166 308.5341 0001234  85.6151 274.4983 15.08852627 55908,6917.842,95.437,540.56,538.853,0.0
